stk.v.12.0



BEGIN Ephemeris

	NumberOfEphemerisPoints		30

	ScenarioEpoch			2023-01-10 02:00:00


	InterpolationMethod		 Lagrange

	InterpolationSamplesM1		 1

	CentralBody		 Earth

	CoordinateSystem		 J2000



	EphemerisTimePosVel

0.0	   8812917.99842392 -40457723.11559851  13116073.29974429 	 2210.81658084  848.19940516 1814.71473233 
60.0	   8945461.79167131 -40406487.97345041  13224818.36878961 	 2208.2266265   859.99297766 1810.8730686  
120.0	   9077848.95475638 -40354546.18525714  13333331.99245897 	 2205.60027965  871.76143767 1807.00302873 
180.0	   9210077.31161833 -40301899.2623064   13441612.47532609 	 2202.93764467  883.50463881 1803.10472341 
240.0	   9342144.69247039 -40248548.72457352  13549658.12860323 	 2200.23882611  895.2224356  1799.17826335 
300.0	   9474048.93380862 -40194496.10066772  13657467.27014175 	 2197.50392866  906.91468346 1795.22375929 
360.0	   9605787.87842111 -40139742.92777842  13765038.22443288 	 2194.73305722  918.5812387  1791.241322   
420.0	   9737359.37539656 -40084290.75162183  13872369.32260799 	 2191.92631681  930.22195852 1787.23106225 
480.0	   9868761.28013252 -40028141.12638808  13979458.90243879 	 2189.08381262  941.83670102 1783.19309086 
540.0	   9999991.45434395 -39971295.61468803  14086305.30833759 	 2186.20564999  953.42532517 1779.12751862 
600.0	  10131047.76607093 -39913755.78750098  14192906.89135699 	 2183.29193442  964.98769082 1775.03445636 
660.0	  10261928.08968674 -39855523.22412205  14299262.00918996 	 2180.34277153  976.5236587  1770.91401492 
720.0	  10392630.30590522 -39796599.51211023  14405369.02616919 	 2177.3582671   988.03309041 1766.76630513 
780.0	  10523152.30178827 -39736986.24723645  14511226.31326672 	 2174.33852705  999.51584843 1762.59143783 
840.0	  10653491.97075306 -39676685.03343195  14616832.2480933  	 2171.2836574  1010.97179608 1758.38952387 
900.0	  10783647.2125789  -39615697.48273699  14722185.21489746 	 2168.19376435 1022.40079757 1754.16067408 
960.0	  10913615.93341413 -39554025.21524973  14827283.60456472 	 2165.0689542  1033.80271793 1749.90499931 
1020.0	  11043396.04578264 -39491669.85907532  14932125.81461641 	 2161.90933337 1045.17742308 1745.62261038 
1080.0	  11172985.46859025 -39428633.05027533  15036710.24920844 	 2158.71500841 1056.52477976 1741.31361812 
1140.0	  11302382.12713103 -39364916.43281734  15141035.31913011 	 2155.48608598 1067.84465556 1736.97813333 
1200.0	  11431583.95309309 -39300521.65852495  15245099.44180234 	 2152.22267286 1079.13691894 1732.61626681 
1260.0	  11560588.88456464 -39235450.38702783  15348901.04127638 	 2148.92487594 1090.40143914 1728.22812934 
1320.0	  11689394.86603937 -39169704.28571217  15452438.54823179 	 2145.59280222 1101.63808629 1723.81383168 
1380.0	  11817999.84842227 -39103285.02967121  15555710.39997488 	 2142.2265588  1112.84673131 1719.37348459 
1440.0	  11946401.78903444 -39036194.30165641  15658715.04043636 	 2138.82625288 1124.02724597 1714.90719877 
1500.0	  12074598.65161857 -38968433.79202831  15761450.92016952 	 2135.39199175 1135.17950285 1710.41508493 
1560.0	  12202588.40634373 -38900005.19870808  15863916.49634794 	 2131.92388283 1146.30337533 1705.89725373 
1620.0	  12330369.02980999 -38830910.2271292   15966110.23276299 	 2128.42203359 1157.39873764 1701.35381582 
1680.0	  12457938.50505332 -38761150.59018923  16068030.59982166 	 2124.88655161 1168.4654648  1696.7848818  
1740.0	  12585294.8215496  -38690728.00820218  16169676.0745437  	 2121.31754455 1179.50343261 1692.19056226 
1800.0	  12712435.97521922 -38619644.2088507   16271045.14055911 	 2117.71512017 1190.51251772 1687.57096774 


END Ephemeris